{
  "type": "FeatureCollection",
  "features": [
    {
      "type": "Feature",
      "properties": {
        "norad_id": 36828,
        "name": "BEIDOU-2 IGSO-1 (C06)",
        "group": "beidou",
        "lat": -52.34730198822865,
        "lon": 95.69077449626774,
        "alt_km": 35703.93142109439,
        "timestamp": "2025-12-02T17:49:12.292814+00:00",
        "meta_object_name": "BEIDOU-2 IGSO-1 (C06)",
        "meta_object_id": "2010-036A",
        "meta_epoch": "2025-12-01T10:54:26.819712",
        "meta_mean_motion": 1.00279202,
        "meta_eccentricity": 0.00512823,
        "meta_inclination": 54.2832,
        "meta_ra_of_asc_node": 164.751,
        "meta_arg_of_pericenter": 215.7518,
        "meta_mean_anomaly": 321.3962,
        "meta_ephemeris_type": 0,
        "meta_classification_type": "U",
        "meta_norad_cat_id": 36828,
        "meta_element_set_no": 999,
        "meta_rev_at_epoch": 5611,
        "meta_bstar": 0,
        "meta_mean_motion_dot": -1.7e-07,
        "meta_mean_motion_ddot": 0,
        "tle_line1": "1 36828U 10036A   25335.45447708 -.00000017  00000+0  00000+0 0  9991",
        "tle_line2": "2 36828  54.2832 164.7510 0051282 215.7518 321.3962  1.00279202 56116"
      },
      "geometry": {
        "type": "Point",
        "coordinates": [
          95.69077449626774,
          -52.34730198822865
        ]
      }
    },
    {
      "type": "Feature",
      "properties": {
        "norad_id": 37210,
        "name": "BEIDOU-2 G4 (C04)",
        "group": "beidou",
        "lat": 2.950470126605553,
        "lon": 139.05318457527326,
        "alt_km": 35807.92431884167,
        "timestamp": "2025-12-02T17:49:12.292837+00:00",
        "meta_object_name": "BEIDOU-2 G4 (C04)",
        "meta_object_id": "2010-057A",
        "meta_epoch": "2025-12-02T10:49:38.522784",
        "meta_mean_motion": 1.00271394,
        "meta_eccentricity": 0.0010858,
        "meta_inclination": 3.157,
        "meta_ra_of_asc_node": 69.9629,
        "meta_arg_of_pericenter": 188.0022,
        "meta_mean_anomaly": 136.0718,
        "meta_ephemeris_type": 0,
        "meta_classification_type": "U",
        "meta_norad_cat_id": 37210,
        "meta_element_set_no": 999,
        "meta_rev_at_epoch": 5531,
        "meta_bstar": 0,
        "meta_mean_motion_dot": -9.2e-07,
        "meta_mean_motion_ddot": 0,
        "tle_line1": "1 37210U 10057A   25336.45114031 -.00000092  00000+0  00000+0 0  9994",
        "tle_line2": "2 37210   3.1570  69.9629 0010858 188.0022 136.0718  1.00271394 55312"
      },
      "geometry": {
        "type": "Point",
        "coordinates": [
          139.05318457527326,
          2.950470126605553
        ]
      }
    },
    {
      "type": "Feature",
      "properties": {
        "norad_id": 37256,
        "name": "BEIDOU-2 IGSO-2 (C07)",
        "group": "beidou",
        "lat": 6.1814987145607985,
        "lon": 88.62258693959983,
        "alt_km": 35632.77834364011,
        "timestamp": "2025-12-02T17:49:12.292851+00:00",
        "meta_object_name": "BEIDOU-2 IGSO-2 (C07)",
        "meta_object_id": "2010-068A",
        "meta_epoch": "2025-11-30T14:15:56.539296",
        "meta_mean_motion": 1.00290004,
        "meta_eccentricity": 0.0049401,
        "meta_inclination": 47.9109,
        "meta_ra_of_asc_node": 274.301,
        "meta_arg_of_pericenter": 216.3834,
        "meta_mean_anomaly": 260.0417,
        "meta_ephemeris_type": 0,
        "meta_classification_type": "U",
        "meta_norad_cat_id": 37256,
        "meta_element_set_no": 999,
        "meta_rev_at_epoch": 5480,
        "meta_bstar": 0,
        "meta_mean_motion_dot": -2.25e-06,
        "meta_mean_motion_ddot": 0,
        "tle_line1": "1 37256U 10068A   25334.59440439 -.00000225  00000+0  00000+0 0  9991",
        "tle_line2": "2 37256  47.9109 274.3010 0049401 216.3834 260.0417  1.00290004 54800"
      },
      "geometry": {
        "type": "Point",
        "coordinates": [
          88.62258693959983,
          6.1814987145607985
        ]
      }
    },
    {
      "type": "Feature",
      "properties": {
        "norad_id": 37384,
        "name": "BEIDOU-2 IGSO-3 (C08)",
        "group": "beidou",
        "lat": 38.32961336361642,
        "lon": 66.71812480583566,
        "alt_km": 35899.840699785374,
        "timestamp": "2025-12-02T17:49:12.292864+00:00",
        "meta_object_name": "BEIDOU-2 IGSO-3 (C08)",
        "meta_object_id": "2011-013A",
        "meta_epoch": "2025-11-29T21:04:05.094336",
        "meta_mean_motion": 1.00273417,
        "meta_eccentricity": 0.00356655,
        "meta_inclination": 62.1255,
        "meta_ra_of_asc_node": 42.0418,
        "meta_arg_of_pericenter": 186.0158,
        "meta_mean_anomaly": 264.7363,
        "meta_ephemeris_type": 0,
        "meta_classification_type": "U",
        "meta_norad_cat_id": 37384,
        "meta_element_set_no": 999,
        "meta_rev_at_epoch": 5366,
        "meta_bstar": 0,
        "meta_mean_motion_dot": -1.94e-06,
        "meta_mean_motion_ddot": 0,
        "tle_line1": "1 37384U 11013A   25333.87783674 -.00000194  00000+0  00000+0 0  9990",
        "tle_line2": "2 37384  62.1255  42.0418 0035665 186.0158 264.7363  1.00273417 53667"
      },
      "geometry": {
        "type": "Point",
        "coordinates": [
          66.71812480583566,
          38.32961336361642
        ]
      }
    },
    {
      "type": "Feature",
      "properties": {
        "norad_id": 37763,
        "name": "BEIDOU-2 IGSO-4 (C09)",
        "group": "beidou",
        "lat": -54.391114049933186,
        "lon": 71.75654056640563,
        "alt_km": 35280.00424255541,
        "timestamp": "2025-12-02T17:49:12.292877+00:00",
        "meta_object_name": "BEIDOU-2 IGSO-4 (C09)",
        "meta_object_id": "2011-038A",
        "meta_epoch": "2025-11-28T12:37:32.473920",
        "meta_mean_motion": 1.00284857,
        "meta_eccentricity": 0.01486323,
        "meta_inclination": 54.5801,
        "meta_ra_of_asc_node": 167.4746,
        "meta_arg_of_pericenter": 230.1967,
        "meta_mean_anomaly": 313.2933,
        "meta_ephemeris_type": 0,
        "meta_classification_type": "U",
        "meta_norad_cat_id": 37763,
        "meta_element_set_no": 999,
        "meta_rev_at_epoch": 5263,
        "meta_bstar": 0,
        "meta_mean_motion_dot": 8.5e-07,
        "meta_mean_motion_ddot": 0,
        "tle_line1": "1 37763U 11038A   25332.52607030  .00000085  00000+0  00000+0 0  9998",
        "tle_line2": "2 37763  54.5801 167.4746 0148632 230.1967 313.2933  1.00284857 52633"
      },
      "geometry": {
        "type": "Point",
        "coordinates": [
          71.75654056640563,
          -54.391114049933186
        ]
      }
    },
    {
      "type": "Feature",
      "properties": {
        "norad_id": 37948,
        "name": "BEIDOU-2 IGSO-5 (C10)",
        "group": "beidou",
        "lat": 17.320785083623853,
        "lon": 77.6754865701389,
        "alt_km": 35583.36187664466,
        "timestamp": "2025-12-02T17:49:12.292890+00:00",
        "meta_object_name": "BEIDOU-2 IGSO-5 (C10)",
        "meta_object_id": "2011-073A",
        "meta_epoch": "2025-12-01T19:23:12.254208",
        "meta_mean_motion": 1.00292861,
        "meta_eccentricity": 0.01108827,
        "meta_inclination": 48.0424,
        "meta_ra_of_asc_node": 273.9939,
        "meta_arg_of_pericenter": 222.2372,
        "meta_mean_anomaly": 317.7789,
        "meta_ephemeris_type": 0,
        "meta_classification_type": "U",
        "meta_norad_cat_id": 37948,
        "meta_element_set_no": 999,
        "meta_rev_at_epoch": 5115,
        "meta_bstar": 0,
        "meta_mean_motion_dot": -1.75e-06,
        "meta_mean_motion_ddot": 0,
        "tle_line1": "1 37948U 11073A   25335.80778072 -.00000175  00000+0  00000+0 0  9992",
        "tle_line2": "2 37948  48.0424 273.9939 0110882 222.2372 317.7789  1.00292861 51150"
      },
      "geometry": {
        "type": "Point",
        "coordinates": [
          77.6754865701389,
          17.320785083623853
        ]
      }
    },
    {
      "type": "Feature",
      "properties": {
        "norad_id": 38091,
        "name": "BEIDOU-2 G5 (C05)",
        "group": "beidou",
        "lat": -1.6438654174134486,
        "lon": 37.993773198501536,
        "alt_km": 35796.912480255014,
        "timestamp": "2025-12-02T17:49:12.292902+00:00",
        "meta_object_name": "BEIDOU-2 G5 (C05)",
        "meta_object_id": "2012-008A",
        "meta_epoch": "2025-12-02T05:30:12.619872",
        "meta_mean_motion": 1.00271982,
        "meta_eccentricity": 0.0012222,
        "meta_inclination": 3.0809,
        "meta_ra_of_asc_node": 70.7374,
        "meta_arg_of_pericenter": 225.4124,
        "meta_mean_anomaly": 276.4387,
        "meta_ephemeris_type": 0,
        "meta_classification_type": "U",
        "meta_norad_cat_id": 38091,
        "meta_element_set_no": 999,
        "meta_rev_at_epoch": 5039,
        "meta_bstar": 0,
        "meta_mean_motion_dot": 7.7e-07,
        "meta_mean_motion_ddot": 0,
        "tle_line1": "1 38091U 12008A   25336.22931273  .00000077  00000+0  00000+0 0  9992",
        "tle_line2": "2 38091   3.0809  70.7374 0012222 225.4124 276.4387  1.00271982 50394"
      },
      "geometry": {
        "type": "Point",
        "coordinates": [
          37.993773198501536,
          -1.6438654174134486
        ]
      }
    }
  ]
}